<?xml version="1.0" encoding="UTF-8"?>
<gpx creator="https://gpx.studio" version="1.1" xmlns="http://www.topografix.com/GPX/1/1" xmlns:xsi="http://www.w3.org/2001/XMLSchema-instance" xsi:schemaLocation="http://www.topografix.com/GPX/1/1 http://www.topografix.com/GPX/1/1/gpx.xsd http://www.garmin.com/xmlschemas/GpxExtensions/v3 http://www.garmin.com/xmlschemas/GpxExtensionsv3.xsd http://www.garmin.com/xmlschemas/TrackPointExtension/v1 http://www.garmin.com/xmlschemas/TrackPointExtensionv1.xsd http://www.garmin.com/xmlschemas/PowerExtension/v1 http://www.garmin.com/xmlschemas/PowerExtensionv1.xsd http://www.topografix.com/GPX/gpx_style/0/2 http://www.topografix.com/GPX/gpx_style/0/2/gpx_style.xsd" xmlns:gpxtpx="http://www.garmin.com/xmlschemas/TrackPointExtension/v1" xmlns:gpxx="http://www.garmin.com/xmlschemas/GpxExtensions/v3" xmlns:gpxpx="http://www.garmin.com/xmlschemas/PowerExtension/v1" xmlns:gpx_style="http://www.topografix.com/GPX/gpx_style/0/2">
  <metadata>
    <name>New file 1</name>
    <author>
      <name>gpx.studio</name>
      <link href="https://gpx.studio"/>
    </author>
  </metadata>
  <trk>
    <trkseg>
      <trkpt lat="3.410412" lon="101.783831">
        <ele>1276.47</ele>
      </trkpt>
      <trkpt lat="3.410647" lon="101.783425">
        <ele>1289.95</ele>
      </trkpt>
      <trkpt lat="3.410899" lon="101.782955">
        <ele>1295.98</ele>
      </trkpt>
      <trkpt lat="3.411001" lon="101.782832">
        <ele>1299.34</ele>
      </trkpt>
      <trkpt lat="3.411137" lon="101.782763">
        <ele>1304.23</ele>
      </trkpt>
      <trkpt lat="3.411409" lon="101.782703">
        <ele>1314.46</ele>
      </trkpt>
      <trkpt lat="3.411478" lon="101.782677">
        <ele>1316.33</ele>
      </trkpt>
      <trkpt lat="3.411572" lon="101.782592">
        <ele>1317.5</ele>
      </trkpt>
      <trkpt lat="3.411604" lon="101.782464">
        <ele>1316.2</ele>
      </trkpt>
      <trkpt lat="3.411611" lon="101.782259">
        <ele>1314.49</ele>
      </trkpt>
      <trkpt lat="3.411617" lon="101.782053">
        <ele>1315.45</ele>
      </trkpt>
      <trkpt lat="3.411569" lon="101.781883">
        <ele>1316.21</ele>
      </trkpt>
      <trkpt lat="3.411467" lon="101.781711">
        <ele>1315.52</ele>
      </trkpt>
      <trkpt lat="3.411272" lon="101.781501">
        <ele>1313.92</ele>
      </trkpt>
      <trkpt lat="3.411114" lon="101.781402">
        <ele>1313.25</ele>
      </trkpt>
      <trkpt lat="3.410915" lon="101.781251">
        <ele>1317.05</ele>
      </trkpt>
      <trkpt lat="3.410843" lon="101.781149">
        <ele>1318.6</ele>
      </trkpt>
      <trkpt lat="3.410848" lon="101.781039">
        <ele>1319.89</ele>
      </trkpt>
      <trkpt lat="3.410888" lon="101.780961">
        <ele>1321.27</ele>
      </trkpt>
      <trkpt lat="3.410972" lon="101.7809">
        <ele>1322.27</ele>
      </trkpt>
      <trkpt lat="3.411098" lon="101.78089">
        <ele>1323</ele>
      </trkpt>
      <trkpt lat="3.411338" lon="101.780901">
        <ele>1326.07</ele>
      </trkpt>
      <trkpt lat="3.411726" lon="101.780922">
        <ele>1335.8</ele>
      </trkpt>
      <trkpt lat="3.411848" lon="101.780957">
        <ele>1338.76</ele>
      </trkpt>
      <trkpt lat="3.411916" lon="101.780997">
        <ele>1340.19</ele>
      </trkpt>
      <trkpt lat="3.411982" lon="101.781096">
        <ele>1343.03</ele>
      </trkpt>
      <trkpt lat="3.412045" lon="101.781246">
        <ele>1346.44</ele>
      </trkpt>
      <trkpt lat="3.412134" lon="101.781482">
        <ele>1350.21</ele>
      </trkpt>
      <trkpt lat="3.412222" lon="101.781717">
        <ele>1353.08</ele>
      </trkpt>
      <trkpt lat="3.412434" lon="101.782356">
        <ele>1357.81</ele>
      </trkpt>
      <trkpt lat="3.412524" lon="101.782502">
        <ele>1361.08</ele>
      </trkpt>
      <trkpt lat="3.412681" lon="101.78268">
        <ele>1367.6</ele>
      </trkpt>
      <trkpt lat="3.412776" lon="101.782872">
        <ele>1372.69</ele>
      </trkpt>
      <trkpt lat="3.412794" lon="101.783027">
        <ele>1374.88</ele>
      </trkpt>
      <trkpt lat="3.41278" lon="101.783135">
        <ele>1377.11</ele>
      </trkpt>
      <trkpt lat="3.412733" lon="101.783244">
        <ele>1378.39</ele>
      </trkpt>
      <trkpt lat="3.412373" lon="101.783624">
        <ele>1375.45</ele>
      </trkpt>
      <trkpt lat="3.412242" lon="101.783834">
        <ele>1373.7</ele>
      </trkpt>
      <trkpt lat="3.412207" lon="101.784027">
        <ele>1374.16</ele>
      </trkpt>
      <trkpt lat="3.412238" lon="101.784238">
        <ele>1372.93</ele>
      </trkpt>
      <trkpt lat="3.412314" lon="101.784422">
        <ele>1372.36</ele>
      </trkpt>
      <trkpt lat="3.412647" lon="101.785031">
        <ele>1380.53</ele>
      </trkpt>
      <trkpt lat="3.412764" lon="101.785246">
        <ele>1386.86</ele>
      </trkpt>
      <trkpt lat="3.412784" lon="101.785344">
        <ele>1390.38</ele>
      </trkpt>
      <trkpt lat="3.41277" lon="101.785438">
        <ele>1392.96</ele>
      </trkpt>
      <trkpt lat="3.412705" lon="101.78555">
        <ele>1395.64</ele>
      </trkpt>
      <trkpt lat="3.412551" lon="101.785682">
        <ele>1394.56</ele>
      </trkpt>
      <trkpt lat="3.412397" lon="101.785813">
        <ele>1391.27</ele>
      </trkpt>
      <trkpt lat="3.412318" lon="101.78592">
        <ele>1388.8</ele>
      </trkpt>
      <trkpt lat="3.412286" lon="101.786026">
        <ele>1388.51</ele>
      </trkpt>
      <trkpt lat="3.412223" lon="101.786319">
        <ele>1389.34</ele>
      </trkpt>
      <trkpt lat="3.412179" lon="101.786479">
        <ele>1390.38</ele>
      </trkpt>
      <trkpt lat="3.412051" lon="101.786815">
        <ele>1391.81</ele>
      </trkpt>
      <trkpt lat="3.412013" lon="101.786991">
        <ele>1394.4</ele>
      </trkpt>
      <trkpt lat="3.41196" lon="101.787126">
        <ele>1395.55</ele>
      </trkpt>
      <trkpt lat="3.411901" lon="101.787246">
        <ele>1396.2</ele>
      </trkpt>
      <trkpt lat="3.411772" lon="101.787474">
        <ele>1395.24</ele>
      </trkpt>
      <trkpt lat="3.411755" lon="101.787558">
        <ele>1394.49</ele>
      </trkpt>
      <trkpt lat="3.411784" lon="101.787648">
        <ele>1395.97</ele>
      </trkpt>
      <trkpt lat="3.411848" lon="101.787701">
        <ele>1397.87</ele>
      </trkpt>
      <trkpt lat="3.411909" lon="101.787693">
        <ele>1400.65</ele>
      </trkpt>
      <trkpt lat="3.411983" lon="101.787635">
        <ele>1404.26</ele>
      </trkpt>
      <trkpt lat="3.412131" lon="101.78741">
        <ele>1409.72</ele>
      </trkpt>
      <trkpt lat="3.412217" lon="101.787204">
        <ele>1410.8</ele>
      </trkpt>
      <trkpt lat="3.412309" lon="101.787039">
        <ele>1412</ele>
      </trkpt>
      <trkpt lat="3.412557" lon="101.786766">
        <ele>1418.11</ele>
      </trkpt>
      <trkpt lat="3.412662" lon="101.786612">
        <ele>1420.66</ele>
      </trkpt>
      <trkpt lat="3.412753" lon="101.786396">
        <ele>1422.87</ele>
      </trkpt>
      <trkpt lat="3.412789" lon="101.786338">
        <ele>1424.19</ele>
      </trkpt>
      <trkpt lat="3.412867" lon="101.786296">
        <ele>1426.56</ele>
      </trkpt>
      <trkpt lat="3.41295" lon="101.786287">
        <ele>1428.93</ele>
      </trkpt>
      <trkpt lat="3.413037" lon="101.786327">
        <ele>1430.95</ele>
      </trkpt>
      <trkpt lat="3.413223" lon="101.78643">
        <ele>1435.93</ele>
      </trkpt>
      <trkpt lat="3.413317" lon="101.786434">
        <ele>1438.12</ele>
      </trkpt>
      <trkpt lat="3.413415" lon="101.786391">
        <ele>1440.48</ele>
      </trkpt>
      <trkpt lat="3.413504" lon="101.786316">
        <ele>1441.5</ele>
      </trkpt>
      <trkpt lat="3.413826" lon="101.786046">
        <ele>1445.15</ele>
      </trkpt>
      <trkpt lat="3.413971" lon="101.785952">
        <ele>1448.4</ele>
      </trkpt>
      <trkpt lat="3.414008" lon="101.785899">
        <ele>1449.14</ele>
      </trkpt>
      <trkpt lat="3.414032" lon="101.78585">
        <ele>1449.52</ele>
      </trkpt>
      <trkpt lat="3.414042" lon="101.78575">
        <ele>1449.29</ele>
      </trkpt>
      <trkpt lat="3.413969" lon="101.785543">
        <ele>1448.61</ele>
      </trkpt>
      <trkpt lat="3.413936" lon="101.785415">
        <ele>1448.35</ele>
      </trkpt>
      <trkpt lat="3.413921" lon="101.785289">
        <ele>1448.22</ele>
      </trkpt>
      <trkpt lat="3.413937" lon="101.784838">
        <ele>1453.67</ele>
      </trkpt>
      <trkpt lat="3.41392" lon="101.784234">
        <ele>1465.84</ele>
      </trkpt>
      <trkpt lat="3.413921" lon="101.78406">
        <ele>1467.04</ele>
      </trkpt>
      <trkpt lat="3.413982" lon="101.783878">
        <ele>1468.78</ele>
      </trkpt>
      <trkpt lat="3.414304" lon="101.783286">
        <ele>1474.18</ele>
      </trkpt>
      <trkpt lat="3.414382" lon="101.783226">
        <ele>1476.04</ele>
      </trkpt>
      <trkpt lat="3.414431" lon="101.783212">
        <ele>1476.69</ele>
      </trkpt>
      <trkpt lat="3.414524" lon="101.783213">
        <ele>1478.46</ele>
      </trkpt>
      <trkpt lat="3.414573" lon="101.783235">
        <ele>1479.07</ele>
      </trkpt>
      <trkpt lat="3.414652" lon="101.783316">
        <ele>1481.43</ele>
      </trkpt>
      <trkpt lat="3.414969" lon="101.783744">
        <ele>1488.33</ele>
      </trkpt>
      <trkpt lat="3.415164" lon="101.783968">
        <ele>1490.03</ele>
      </trkpt>
      <trkpt lat="3.415358" lon="101.784192">
        <ele>1494.12</ele>
      </trkpt>
      <trkpt lat="3.415696" lon="101.784537">
        <ele>1500.43</ele>
      </trkpt>
      <trkpt lat="3.415798" lon="101.784671">
        <ele>1502.2</ele>
      </trkpt>
      <trkpt lat="3.415875" lon="101.784823">
        <ele>1504.65</ele>
      </trkpt>
      <trkpt lat="3.415875" lon="101.784823">
        <ele>1504.65</ele>
      </trkpt>
      <trkpt lat="3.416042" lon="101.785156">
        <ele>1510</ele>
      </trkpt>
      <trkpt lat="3.416167" lon="101.785328">
        <ele>1513.39</ele>
      </trkpt>
      <trkpt lat="3.416279" lon="101.785406">
        <ele>1515.35</ele>
      </trkpt>
      <trkpt lat="3.416462" lon="101.785438">
        <ele>1516.54</ele>
      </trkpt>
      <trkpt lat="3.416677" lon="101.785491">
        <ele>1519.64</ele>
      </trkpt>
      <trkpt lat="3.416761" lon="101.785538">
        <ele>1522.16</ele>
      </trkpt>
      <trkpt lat="3.416793" lon="101.785585">
        <ele>1524.59</ele>
      </trkpt>
      <trkpt lat="3.416787" lon="101.785648">
        <ele>1525.95</ele>
      </trkpt>
      <trkpt lat="3.416726" lon="101.785729">
        <ele>1526.52</ele>
      </trkpt>
      <trkpt lat="3.416609" lon="101.78581">
        <ele>1527.1</ele>
      </trkpt>
      <trkpt lat="3.416437" lon="101.785874">
        <ele>1528.91</ele>
      </trkpt>
      <trkpt lat="3.416148" lon="101.785968">
        <ele>1534.15</ele>
      </trkpt>
      <trkpt lat="3.416037" lon="101.786002">
        <ele>1534.71</ele>
      </trkpt>
      <trkpt lat="3.415935" lon="101.786077">
        <ele>1535.23</ele>
      </trkpt>
      <trkpt lat="3.415784" lon="101.786259">
        <ele>1538.45</ele>
      </trkpt>
      <trkpt lat="3.415417" lon="101.786802">
        <ele>1543.73</ele>
      </trkpt>
      <trkpt lat="3.41531" lon="101.787011">
        <ele>1547.01</ele>
      </trkpt>
      <trkpt lat="3.415317" lon="101.787135">
        <ele>1548.58</ele>
      </trkpt>
      <trkpt lat="3.415371" lon="101.787228">
        <ele>1550.13</ele>
      </trkpt>
      <trkpt lat="3.415436" lon="101.78729">
        <ele>1551.63</ele>
      </trkpt>
      <trkpt lat="3.415538" lon="101.787314">
        <ele>1553.56</ele>
      </trkpt>
      <trkpt lat="3.415698" lon="101.787311">
        <ele>1555.62</ele>
      </trkpt>
      <trkpt lat="3.416011" lon="101.787243">
        <ele>1562.18</ele>
      </trkpt>
      <trkpt lat="3.416243" lon="101.787162">
        <ele>1565.1</ele>
      </trkpt>
      <trkpt lat="3.416697" lon="101.786974">
        <ele>1567.19</ele>
      </trkpt>
      <trkpt lat="3.41685" lon="101.786949">
        <ele>1568.32</ele>
      </trkpt>
      <trkpt lat="3.416971" lon="101.786956">
        <ele>1569.64</ele>
      </trkpt>
      <trkpt lat="3.417085" lon="101.786979">
        <ele>1570.96</ele>
      </trkpt>
      <trkpt lat="3.417252" lon="101.787067">
        <ele>1573.64</ele>
      </trkpt>
      <trkpt lat="3.417559" lon="101.787317">
        <ele>1575.68</ele>
      </trkpt>
      <trkpt lat="3.417648" lon="101.787465">
        <ele>1579.07</ele>
      </trkpt>
      <trkpt lat="3.417651" lon="101.787547">
        <ele>1581.5</ele>
      </trkpt>
      <trkpt lat="3.417593" lon="101.787614">
        <ele>1583.6</ele>
      </trkpt>
      <trkpt lat="3.417489" lon="101.787628">
        <ele>1584.13</ele>
      </trkpt>
      <trkpt lat="3.417054" lon="101.787506">
        <ele>1582.17</ele>
      </trkpt>
      <trkpt lat="3.416924" lon="101.787508">
        <ele>1582.13</ele>
      </trkpt>
      <trkpt lat="3.416794" lon="101.787554">
        <ele>1582.21</ele>
      </trkpt>
      <trkpt lat="3.416706" lon="101.787614">
        <ele>1581.87</ele>
      </trkpt>
      <trkpt lat="3.416621" lon="101.787736">
        <ele>1581.52</ele>
      </trkpt>
      <trkpt lat="3.416595" lon="101.787847">
        <ele>1582.08</ele>
      </trkpt>
      <trkpt lat="3.416588" lon="101.787982">
        <ele>1581.88</ele>
      </trkpt>
      <trkpt lat="3.416612" lon="101.788111">
        <ele>1582.58</ele>
      </trkpt>
      <trkpt lat="3.416673" lon="101.788257">
        <ele>1584.36</ele>
      </trkpt>
      <trkpt lat="3.416777" lon="101.788397">
        <ele>1586.74</ele>
      </trkpt>
      <trkpt lat="3.416939" lon="101.788555">
        <ele>1589.52</ele>
      </trkpt>
      <trkpt lat="3.417089" lon="101.78868">
        <ele>1590.78</ele>
      </trkpt>
      <trkpt lat="3.417421" lon="101.788942">
        <ele>1594.32</ele>
      </trkpt>
      <trkpt lat="3.417582" lon="101.789063">
        <ele>1597.6</ele>
      </trkpt>
      <trkpt lat="3.417823" lon="101.789319">
        <ele>1604.09</ele>
      </trkpt>
      <trkpt lat="3.417951" lon="101.789416">
        <ele>1607.37</ele>
      </trkpt>
      <trkpt lat="3.418058" lon="101.78943">
        <ele>1610.33</ele>
      </trkpt>
      <trkpt lat="3.41821" lon="101.789435">
        <ele>1614.29</ele>
      </trkpt>
      <trkpt lat="3.418276" lon="101.789452">
        <ele>1616.03</ele>
      </trkpt>
      <trkpt lat="3.41833" lon="101.789488">
        <ele>1617.84</ele>
      </trkpt>
      <trkpt lat="3.418358" lon="101.789549">
        <ele>1619.36</ele>
      </trkpt>
      <trkpt lat="3.41835" lon="101.789769">
        <ele>1618.52</ele>
      </trkpt>
      <trkpt lat="3.418379" lon="101.789876">
        <ele>1617.8</ele>
      </trkpt>
      <trkpt lat="3.418461" lon="101.78996">
        <ele>1618.51</ele>
      </trkpt>
      <trkpt lat="3.418538" lon="101.790009">
        <ele>1619.9</ele>
      </trkpt>
      <trkpt lat="3.418619" lon="101.790021">
        <ele>1622.62</ele>
      </trkpt>
      <trkpt lat="3.41871" lon="101.790003">
        <ele>1626.07</ele>
      </trkpt>
      <trkpt lat="3.418778" lon="101.789931">
        <ele>1629.24</ele>
      </trkpt>
      <trkpt lat="3.418928" lon="101.789707">
        <ele>1635.85</ele>
      </trkpt>
      <trkpt lat="3.41905" lon="101.789557">
        <ele>1637.91</ele>
      </trkpt>
      <trkpt lat="3.419153" lon="101.789476">
        <ele>1640.09</ele>
      </trkpt>
      <trkpt lat="3.41931" lon="101.789413">
        <ele>1643.8</ele>
      </trkpt>
      <trkpt lat="3.41947" lon="101.789364">
        <ele>1646.51</ele>
      </trkpt>
      <trkpt lat="3.419707" lon="101.789323">
        <ele>1649.43</ele>
      </trkpt>
      <trkpt lat="3.420179" lon="101.789272">
        <ele>1651.37</ele>
      </trkpt>
      <trkpt lat="3.420384" lon="101.789258">
        <ele>1651.13</ele>
      </trkpt>
      <trkpt lat="3.420498" lon="101.789281">
        <ele>1652.05</ele>
      </trkpt>
      <trkpt lat="3.420597" lon="101.789348">
        <ele>1654.22</ele>
      </trkpt>
      <trkpt lat="3.42063" lon="101.789424">
        <ele>1656.73</ele>
      </trkpt>
      <trkpt lat="3.420616" lon="101.789503">
        <ele>1658.78</ele>
      </trkpt>
      <trkpt lat="3.420446" lon="101.789922">
        <ele>1664.74</ele>
      </trkpt>
      <trkpt lat="3.420406" lon="101.790054">
        <ele>1666.34</ele>
      </trkpt>
      <trkpt lat="3.420362" lon="101.790248">
        <ele>1666.99</ele>
      </trkpt>
      <trkpt lat="3.420347" lon="101.790431">
        <ele>1667.94</ele>
      </trkpt>
      <trkpt lat="3.420432" lon="101.790734">
        <ele>1672.05</ele>
      </trkpt>
      <trkpt lat="3.420535" lon="101.79097">
        <ele>1674.35</ele>
      </trkpt>
      <trkpt lat="3.420725" lon="101.791333">
        <ele>1680.88</ele>
      </trkpt>
      <trkpt lat="3.420886" lon="101.791613">
        <ele>1689.98</ele>
      </trkpt>
      <trkpt lat="3.421087" lon="101.791865">
        <ele>1694.03</ele>
      </trkpt>
      <trkpt lat="3.421331" lon="101.792088">
        <ele>1695.96</ele>
      </trkpt>
      <trkpt lat="3.421492" lon="101.792217">
        <ele>1699.23</ele>
      </trkpt>
      <trkpt lat="3.421653" lon="101.792347">
        <ele>1704.59</ele>
      </trkpt>
      <trkpt lat="3.421729" lon="101.792225">
        <ele>1707.02</ele>
      </trkpt>
      <trkpt lat="3.421724" lon="101.792182">
        <ele>1706.66</ele>
      </trkpt>
      <trkpt lat="3.421646" lon="101.792033">
        <ele>1705.04</ele>
      </trkpt>
      <trkpt lat="3.421559" lon="101.791911">
        <ele>1703.6</ele>
      </trkpt>
      <trkpt lat="3.421559" lon="101.791911">
        <ele>1703.6</ele>
      </trkpt>
      <trkpt lat="3.421533" lon="101.791873">
        <ele>1703.16</ele>
      </trkpt>
      <trkpt lat="3.421543" lon="101.791742">
        <ele>1704.68</ele>
      </trkpt>
      <trkpt lat="3.421567" lon="101.791688">
        <ele>1705.52</ele>
      </trkpt>
      <trkpt lat="3.421697" lon="101.791554">
        <ele>1708.37</ele>
      </trkpt>
      <trkpt lat="3.421846" lon="101.791393">
        <ele>1709.27</ele>
      </trkpt>
      <trkpt lat="3.421925" lon="101.791334">
        <ele>1709.54</ele>
      </trkpt>
      <trkpt lat="3.422165" lon="101.791238">
        <ele>1710.02</ele>
      </trkpt>
      <trkpt lat="3.422415" lon="101.791156">
        <ele>1709.7</ele>
      </trkpt>
      <trkpt lat="3.422572" lon="101.791146">
        <ele>1711.44</ele>
      </trkpt>
      <trkpt lat="3.422789" lon="101.79118">
        <ele>1717.55</ele>
      </trkpt>
      <trkpt lat="3.423037" lon="101.791167">
        <ele>1715.36</ele>
      </trkpt>
      <trkpt lat="3.423257" lon="101.791125">
        <ele>1709.86</ele>
      </trkpt>
      <trkpt lat="3.423436" lon="101.791046">
        <ele>1703.23</ele>
      </trkpt>
      <trkpt lat="3.423616" lon="101.790924">
        <ele>1697.04</ele>
      </trkpt>
      <trkpt lat="3.423833" lon="101.790714">
        <ele>1691.21</ele>
      </trkpt>
      <trkpt lat="3.42422" lon="101.790295">
        <ele>1686.32</ele>
      </trkpt>
      <trkpt lat="3.424408" lon="101.790128">
        <ele>1688.34</ele>
      </trkpt>
      <trkpt lat="3.424598" lon="101.789992">
        <ele>1691.16</ele>
      </trkpt>
      <trkpt lat="3.424832" lon="101.789961">
        <ele>1694.47</ele>
      </trkpt>
      <trkpt lat="3.425144" lon="101.789938">
        <ele>1692.72</ele>
      </trkpt>
      <trkpt lat="3.425331" lon="101.78995">
        <ele>1691.59</ele>
      </trkpt>
      <trkpt lat="3.425432" lon="101.78998">
        <ele>1690.87</ele>
      </trkpt>
      <trkpt lat="3.425643" lon="101.790009">
        <ele>1687.83</ele>
      </trkpt>
      <trkpt lat="3.425855" lon="101.790039">
        <ele>1682.32</ele>
      </trkpt>
      <trkpt lat="3.425968" lon="101.790084">
        <ele>1679.55</ele>
      </trkpt>
      <trkpt lat="3.426104" lon="101.790184">
        <ele>1676.94</ele>
      </trkpt>
      <trkpt lat="3.426244" lon="101.790436">
        <ele>1674.64</ele>
      </trkpt>
      <trkpt lat="3.426315" lon="101.790696">
        <ele>1671.94</ele>
      </trkpt>
      <trkpt lat="3.426362" lon="101.790983">
        <ele>1670.12</ele>
      </trkpt>
      <trkpt lat="3.426542" lon="101.792073">
        <ele>1656.26</ele>
      </trkpt>
      <trkpt lat="3.426615" lon="101.792711">
        <ele>1653.97</ele>
      </trkpt>
      <trkpt lat="3.426655" lon="101.793077">
        <ele>1651.13</ele>
      </trkpt>
      <trkpt lat="3.426651" lon="101.793337">
        <ele>1648.72</ele>
      </trkpt>
      <trkpt lat="3.42662" lon="101.793552">
        <ele>1647.48</ele>
      </trkpt>
      <trkpt lat="3.426577" lon="101.793737">
        <ele>1647.83</ele>
      </trkpt>
      <trkpt lat="3.426511" lon="101.793963">
        <ele>1648.23</ele>
      </trkpt>
      <trkpt lat="3.426253" lon="101.794427">
        <ele>1646.06</ele>
      </trkpt>
      <trkpt lat="3.425995" lon="101.794891">
        <ele>1649.2</ele>
      </trkpt>
      <trkpt lat="3.425929" lon="101.795068">
        <ele>1650.85</ele>
      </trkpt>
      <trkpt lat="3.42586" lon="101.795318">
        <ele>1650.8</ele>
      </trkpt>
      <trkpt lat="3.425847" lon="101.795482">
        <ele>1649.85</ele>
      </trkpt>
      <trkpt lat="3.425844" lon="101.795761">
        <ele>1651.15</ele>
      </trkpt>
      <trkpt lat="3.425839" lon="101.79632">
        <ele>1657.23</ele>
      </trkpt>
      <trkpt lat="3.42585" lon="101.796927">
        <ele>1660.25</ele>
      </trkpt>
      <trkpt lat="3.42587" lon="101.797246">
        <ele>1657.41</ele>
      </trkpt>
      <trkpt lat="3.425864" lon="101.797312">
        <ele>1656.41</ele>
      </trkpt>
      <trkpt lat="3.42583" lon="101.797416">
        <ele>1653.14</ele>
      </trkpt>
      <trkpt lat="3.425774" lon="101.797457">
        <ele>1652.37</ele>
      </trkpt>
      <trkpt lat="3.425678" lon="101.797513">
        <ele>1651.88</ele>
      </trkpt>
      <trkpt lat="3.425606" lon="101.797546">
        <ele>1650.57</ele>
      </trkpt>
      <trkpt lat="3.425007" lon="101.797726">
        <ele>1644.47</ele>
      </trkpt>
      <trkpt lat="3.424481" lon="101.797884">
        <ele>1642.96</ele>
      </trkpt>
      <trkpt lat="3.423691" lon="101.798122">
        <ele>1634.32</ele>
      </trkpt>
      <trkpt lat="3.423165" lon="101.798281">
        <ele>1633.24</ele>
      </trkpt>
      <trkpt lat="3.423079" lon="101.798294">
        <ele>1633.82</ele>
      </trkpt>
      <trkpt lat="3.423042" lon="101.798316">
        <ele>1633.35</ele>
      </trkpt>
      <trkpt lat="3.423015" lon="101.798349">
        <ele>1632.67</ele>
      </trkpt>
      <trkpt lat="3.423" lon="101.79839">
        <ele>1631.91</ele>
      </trkpt>
      <trkpt lat="3.422998" lon="101.798427">
        <ele>1631.06</ele>
      </trkpt>
      <trkpt lat="3.423012" lon="101.798465">
        <ele>1630.01</ele>
      </trkpt>
      <trkpt lat="3.423039" lon="101.798492">
        <ele>1629.08</ele>
      </trkpt>
      <trkpt lat="3.423038" lon="101.798511">
        <ele>1628.81</ele>
      </trkpt>
      <trkpt lat="3.422855" lon="101.798475">
        <ele>1631.54</ele>
      </trkpt>
      <trkpt lat="3.422634" lon="101.798396">
        <ele>1634.13</ele>
      </trkpt>
      <trkpt lat="3.421887" lon="101.798201">
        <ele>1635.97</ele>
      </trkpt>
      <trkpt lat="3.421492" lon="101.798114">
        <ele>1641.21</ele>
      </trkpt>
      <trkpt lat="3.421016" lon="101.798012">
        <ele>1641.43</ele>
      </trkpt>
      <trkpt lat="3.42019" lon="101.797854">
        <ele>1647.89</ele>
      </trkpt>
      <trkpt lat="3.420077" lon="101.797836">
        <ele>1649.74</ele>
      </trkpt>
      <trkpt lat="3.419895" lon="101.797774">
        <ele>1651.51</ele>
      </trkpt>
      <trkpt lat="3.41981" lon="101.797694">
        <ele>1650.6</ele>
      </trkpt>
      <trkpt lat="3.419685" lon="101.797684">
        <ele>1651.27</ele>
      </trkpt>
      <trkpt lat="3.419401" lon="101.797504">
        <ele>1651.82</ele>
      </trkpt>
      <trkpt lat="3.419288" lon="101.797409">
        <ele>1651.24</ele>
      </trkpt>
      <trkpt lat="3.41913" lon="101.797354">
        <ele>1650.31</ele>
      </trkpt>
      <trkpt lat="3.419082" lon="101.797319">
        <ele>1648.58</ele>
      </trkpt>
      <trkpt lat="3.418294" lon="101.797321">
        <ele>1641.5</ele>
      </trkpt>
      <trkpt lat="3.418213" lon="101.797308">
        <ele>1640.75</ele>
      </trkpt>
      <trkpt lat="3.418148" lon="101.797285">
        <ele>1639.51</ele>
      </trkpt>
      <trkpt lat="3.418098" lon="101.797254">
        <ele>1638.48</ele>
      </trkpt>
      <trkpt lat="3.418067" lon="101.797198">
        <ele>1636.03</ele>
      </trkpt>
      <trkpt lat="3.418073" lon="101.797125">
        <ele>1632.46</ele>
      </trkpt>
      <trkpt lat="3.418114" lon="101.797073">
        <ele>1630.05</ele>
      </trkpt>
      <trkpt lat="3.41822" lon="101.796965">
        <ele>1625.56</ele>
      </trkpt>
      <trkpt lat="3.41856" lon="101.796667">
        <ele>1619.75</ele>
      </trkpt>
      <trkpt lat="3.418686" lon="101.79652">
        <ele>1619.05</ele>
      </trkpt>
      <trkpt lat="3.418724" lon="101.796437">
        <ele>1618.55</ele>
      </trkpt>
      <trkpt lat="3.41873" lon="101.796378">
        <ele>1617.84</ele>
      </trkpt>
      <trkpt lat="3.418699" lon="101.796328">
        <ele>1615.95</ele>
      </trkpt>
      <trkpt lat="3.41865" lon="101.796302">
        <ele>1613.6</ele>
      </trkpt>
      <trkpt lat="3.418576" lon="101.796325">
        <ele>1611.58</ele>
      </trkpt>
      <trkpt lat="3.418207" lon="101.796567">
        <ele>1608.63</ele>
      </trkpt>
      <trkpt lat="3.418054" lon="101.79665">
        <ele>1609.77</ele>
      </trkpt>
      <trkpt lat="3.417758" lon="101.796772">
        <ele>1611.87</ele>
      </trkpt>
      <trkpt lat="3.417284" lon="101.796934">
        <ele>1615.84</ele>
      </trkpt>
      <trkpt lat="3.417212" lon="101.796936">
        <ele>1615.19</ele>
      </trkpt>
      <trkpt lat="3.417138" lon="101.79688">
        <ele>1611.08</ele>
      </trkpt>
      <trkpt lat="3.417109" lon="101.796789">
        <ele>1605.58</ele>
      </trkpt>
      <trkpt lat="3.41714" lon="101.796721">
        <ele>1602.21</ele>
      </trkpt>
      <trkpt lat="3.417201" lon="101.796658">
        <ele>1598.95</ele>
      </trkpt>
      <trkpt lat="3.417438" lon="101.796569">
        <ele>1594.21</ele>
      </trkpt>
      <trkpt lat="3.417765" lon="101.796405">
        <ele>1590.75</ele>
      </trkpt>
      <trkpt lat="3.417902" lon="101.796276">
        <ele>1587.76</ele>
      </trkpt>
      <trkpt lat="3.417986" lon="101.796128">
        <ele>1584.19</ele>
      </trkpt>
      <trkpt lat="3.418064" lon="101.795963">
        <ele>1582.47</ele>
      </trkpt>
      <trkpt lat="3.41809" lon="101.795831">
        <ele>1581.17</ele>
      </trkpt>
      <trkpt lat="3.418091" lon="101.795676">
        <ele>1580.12</ele>
      </trkpt>
      <trkpt lat="3.418065" lon="101.795559">
        <ele>1579.52</ele>
      </trkpt>
      <trkpt lat="3.417991" lon="101.795406">
        <ele>1580.97</ele>
      </trkpt>
      <trkpt lat="3.417921" lon="101.79536">
        <ele>1580.09</ele>
      </trkpt>
      <trkpt lat="3.417837" lon="101.795341">
        <ele>1577.15</ele>
      </trkpt>
      <trkpt lat="3.417751" lon="101.795377">
        <ele>1572.09</ele>
      </trkpt>
      <trkpt lat="3.417683" lon="101.795456">
        <ele>1567.77</ele>
      </trkpt>
      <trkpt lat="3.417644" lon="101.795567">
        <ele>1564.88</ele>
      </trkpt>
      <trkpt lat="3.417614" lon="101.795713">
        <ele>1564.57</ele>
      </trkpt>
      <trkpt lat="3.41757" lon="101.795864">
        <ele>1565.26</ele>
      </trkpt>
      <trkpt lat="3.417505" lon="101.795958">
        <ele>1566.45</ele>
      </trkpt>
      <trkpt lat="3.417454" lon="101.796011">
        <ele>1567.77</ele>
      </trkpt>
      <trkpt lat="3.417373" lon="101.796051">
        <ele>1568.77</ele>
      </trkpt>
      <trkpt lat="3.417274" lon="101.796059">
        <ele>1568.49</ele>
      </trkpt>
      <trkpt lat="3.417188" lon="101.796015">
        <ele>1565.95</ele>
      </trkpt>
      <trkpt lat="3.417161" lon="101.795914">
        <ele>1560.43</ele>
      </trkpt>
      <trkpt lat="3.417186" lon="101.795744">
        <ele>1554.75</ele>
      </trkpt>
      <trkpt lat="3.41723" lon="101.795383">
        <ele>1551.42</ele>
      </trkpt>
      <trkpt lat="3.417229" lon="101.795224">
        <ele>1552.43</ele>
      </trkpt>
      <trkpt lat="3.417214" lon="101.795151">
        <ele>1553.62</ele>
      </trkpt>
      <trkpt lat="3.417167" lon="101.79509">
        <ele>1553.38</ele>
      </trkpt>
      <trkpt lat="3.417098" lon="101.795057">
        <ele>1551.75</ele>
      </trkpt>
      <trkpt lat="3.417016" lon="101.795062">
        <ele>1548.25</ele>
      </trkpt>
      <trkpt lat="3.416943" lon="101.795121">
        <ele>1544.23</ele>
      </trkpt>
      <trkpt lat="3.416885" lon="101.795225">
        <ele>1540.36</ele>
      </trkpt>
      <trkpt lat="3.416808" lon="101.795488">
        <ele>1539.63</ele>
      </trkpt>
      <trkpt lat="3.416764" lon="101.795602">
        <ele>1540.95</ele>
      </trkpt>
      <trkpt lat="3.416713" lon="101.795663">
        <ele>1542.47</ele>
      </trkpt>
      <trkpt lat="3.416644" lon="101.795696">
        <ele>1543.09</ele>
      </trkpt>
      <trkpt lat="3.416564" lon="101.795695">
        <ele>1542.76</ele>
      </trkpt>
      <trkpt lat="3.416498" lon="101.795659">
        <ele>1541.41</ele>
      </trkpt>
      <trkpt lat="3.416465" lon="101.795593">
        <ele>1537.97</ele>
      </trkpt>
      <trkpt lat="3.416485" lon="101.795374">
        <ele>1531.2</ele>
      </trkpt>
      <trkpt lat="3.416474" lon="101.795232">
        <ele>1528.26</ele>
      </trkpt>
      <trkpt lat="3.416447" lon="101.795113">
        <ele>1525.88</ele>
      </trkpt>
      <trkpt lat="3.416398" lon="101.795006">
        <ele>1523.34</ele>
      </trkpt>
      <trkpt lat="3.416242" lon="101.794722">
        <ele>1515.49</ele>
      </trkpt>
      <trkpt lat="3.416033" lon="101.794245">
        <ele>1510.9</ele>
      </trkpt>
      <trkpt lat="3.416001" lon="101.7941">
        <ele>1511.42</ele>
      </trkpt>
      <trkpt lat="3.416003" lon="101.793928">
        <ele>1512.81</ele>
      </trkpt>
      <trkpt lat="3.416051" lon="101.793789">
        <ele>1514.35</ele>
      </trkpt>
      <trkpt lat="3.416158" lon="101.793626">
        <ele>1515.02</ele>
      </trkpt>
      <trkpt lat="3.416357" lon="101.793366">
        <ele>1511.06</ele>
      </trkpt>
      <trkpt lat="3.416459" lon="101.793266">
        <ele>1510.53</ele>
      </trkpt>
      <trkpt lat="3.416601" lon="101.793193">
        <ele>1511.75</ele>
      </trkpt>
      <trkpt lat="3.417081" lon="101.793031">
        <ele>1516.93</ele>
      </trkpt>
      <trkpt lat="3.417239" lon="101.792956">
        <ele>1518.85</ele>
      </trkpt>
      <trkpt lat="3.417298" lon="101.792886">
        <ele>1517.85</ele>
      </trkpt>
      <trkpt lat="3.417304" lon="101.792795">
        <ele>1514</ele>
      </trkpt>
      <trkpt lat="3.41727" lon="101.792692">
        <ele>1508.73</ele>
      </trkpt>
      <trkpt lat="3.417169" lon="101.792589">
        <ele>1501.65</ele>
      </trkpt>
      <trkpt lat="3.417043" lon="101.792448">
        <ele>1494.44</ele>
      </trkpt>
      <trkpt lat="3.416962" lon="101.792307">
        <ele>1490.38</ele>
      </trkpt>
      <trkpt lat="3.41692" lon="101.792207">
        <ele>1488.25</ele>
      </trkpt>
      <trkpt lat="3.416895" lon="101.792086">
        <ele>1486.89</ele>
      </trkpt>
      <trkpt lat="3.416902" lon="101.791929">
        <ele>1486.26</ele>
      </trkpt>
      <trkpt lat="3.416932" lon="101.791799">
        <ele>1485.93</ele>
      </trkpt>
      <trkpt lat="3.417007" lon="101.79151">
        <ele>1482.39</ele>
      </trkpt>
      <trkpt lat="3.417031" lon="101.791364">
        <ele>1480.43</ele>
      </trkpt>
      <trkpt lat="3.417004" lon="101.791256">
        <ele>1477.84</ele>
      </trkpt>
      <trkpt lat="3.416968" lon="101.791151">
        <ele>1476.46</ele>
      </trkpt>
      <trkpt lat="3.41688" lon="101.791037">
        <ele>1475.35</ele>
      </trkpt>
      <trkpt lat="3.416757" lon="101.790925">
        <ele>1474.07</ele>
      </trkpt>
      <trkpt lat="3.416515" lon="101.790787">
        <ele>1471.41</ele>
      </trkpt>
      <trkpt lat="3.416351" lon="101.790701">
        <ele>1467.38</ele>
      </trkpt>
      <trkpt lat="3.416204" lon="101.79063">
        <ele>1461.66</ele>
      </trkpt>
      <trkpt lat="3.41604" lon="101.790538">
        <ele>1454.68</ele>
      </trkpt>
      <trkpt lat="3.41591" lon="101.790436">
        <ele>1449.45</ele>
      </trkpt>
      <trkpt lat="3.415784" lon="101.790294">
        <ele>1448.11</ele>
      </trkpt>
      <trkpt lat="3.415667" lon="101.790085">
        <ele>1450.51</ele>
      </trkpt>
      <trkpt lat="3.415507" lon="101.789877">
        <ele>1452.61</ele>
      </trkpt>
      <trkpt lat="3.415355" lon="101.789771">
        <ele>1452.32</ele>
      </trkpt>
      <trkpt lat="3.415054" lon="101.78973">
        <ele>1443.06</ele>
      </trkpt>
      <trkpt lat="3.414943" lon="101.789691">
        <ele>1442.73</ele>
      </trkpt>
      <trkpt lat="3.414848" lon="101.789642">
        <ele>1443.96</ele>
      </trkpt>
      <trkpt lat="3.414746" lon="101.789575">
        <ele>1447.17</ele>
      </trkpt>
      <trkpt lat="3.414659" lon="101.789555">
        <ele>1447</ele>
      </trkpt>
      <trkpt lat="3.414572" lon="101.789555">
        <ele>1445</ele>
      </trkpt>
      <trkpt lat="3.414486" lon="101.789593">
        <ele>1439.22</ele>
      </trkpt>
      <trkpt lat="3.414446" lon="101.789624">
        <ele>1435.34</ele>
      </trkpt>
      <trkpt lat="3.414431" lon="101.789739">
        <ele>1426.17</ele>
      </trkpt>
      <trkpt lat="3.414486" lon="101.789847">
        <ele>1418.92</ele>
      </trkpt>
      <trkpt lat="3.414725" lon="101.79005">
        <ele>1410.12</ele>
      </trkpt>
      <trkpt lat="3.41493" lon="101.790217">
        <ele>1406.48</ele>
      </trkpt>
      <trkpt lat="3.415083" lon="101.790371">
        <ele>1405.36</ele>
      </trkpt>
      <trkpt lat="3.415435" lon="101.790733">
        <ele>1409.09</ele>
      </trkpt>
      <trkpt lat="3.415513" lon="101.790873">
        <ele>1407.97</ele>
      </trkpt>
      <trkpt lat="3.415567" lon="101.791002">
        <ele>1406.16</ele>
      </trkpt>
      <trkpt lat="3.41563" lon="101.791211">
        <ele>1404.29</ele>
      </trkpt>
      <trkpt lat="3.415728" lon="101.791501">
        <ele>1405.53</ele>
      </trkpt>
      <trkpt lat="3.415771" lon="101.791607">
        <ele>1406.62</ele>
      </trkpt>
      <trkpt lat="3.41581" lon="101.791736">
        <ele>1407.45</ele>
      </trkpt>
      <trkpt lat="3.415827" lon="101.791975">
        <ele>1409.26</ele>
      </trkpt>
      <trkpt lat="3.415789" lon="101.792042">
        <ele>1410.33</ele>
      </trkpt>
      <trkpt lat="3.415732" lon="101.79207">
        <ele>1409.34</ele>
      </trkpt>
      <trkpt lat="3.415663" lon="101.792094">
        <ele>1410.22</ele>
      </trkpt>
      <trkpt lat="3.415572" lon="101.792075">
        <ele>1409.22</ele>
      </trkpt>
      <trkpt lat="3.415444" lon="101.791973">
        <ele>1407.27</ele>
      </trkpt>
      <trkpt lat="3.415192" lon="101.791571">
        <ele>1398.94</ele>
      </trkpt>
      <trkpt lat="3.415029" lon="101.791267">
        <ele>1388.67</ele>
      </trkpt>
      <trkpt lat="3.414879" lon="101.79099">
        <ele>1382.45</ele>
      </trkpt>
      <trkpt lat="3.414728" lon="101.790754">
        <ele>1379.95</ele>
      </trkpt>
      <trkpt lat="3.414613" lon="101.79064">
        <ele>1378.1</ele>
      </trkpt>
      <trkpt lat="3.414467" lon="101.790523">
        <ele>1376.59</ele>
      </trkpt>
      <trkpt lat="3.414074" lon="101.790326">
        <ele>1371.66</ele>
      </trkpt>
      <trkpt lat="3.413929" lon="101.790247">
        <ele>1368.74</ele>
      </trkpt>
      <trkpt lat="3.413748" lon="101.790121">
        <ele>1365.25</ele>
      </trkpt>
      <trkpt lat="3.413518" lon="101.789872">
        <ele>1362.93</ele>
      </trkpt>
      <trkpt lat="3.413332" lon="101.789742">
        <ele>1361.4</ele>
      </trkpt>
      <trkpt lat="3.413271" lon="101.789698">
        <ele>1362.65</ele>
      </trkpt>
      <trkpt lat="3.413047" lon="101.789655">
        <ele>1361.53</ele>
      </trkpt>
      <trkpt lat="3.41285" lon="101.789649">
        <ele>1358.21</ele>
      </trkpt>
      <trkpt lat="3.412661" lon="101.78965">
        <ele>1352.99</ele>
      </trkpt>
      <trkpt lat="3.412524" lon="101.789626">
        <ele>1347.92</ele>
      </trkpt>
      <trkpt lat="3.412381" lon="101.789551">
        <ele>1343.55</ele>
      </trkpt>
      <trkpt lat="3.41226" lon="101.78945">
        <ele>1341.93</ele>
      </trkpt>
      <trkpt lat="3.412045" lon="101.789253">
        <ele>1339.81</ele>
      </trkpt>
      <trkpt lat="3.411924" lon="101.789162">
        <ele>1338.3</ele>
      </trkpt>
      <trkpt lat="3.411814" lon="101.789118">
        <ele>1336.76</ele>
      </trkpt>
      <trkpt lat="3.411644" lon="101.789079">
        <ele>1335.12</ele>
      </trkpt>
      <trkpt lat="3.411561" lon="101.789068">
        <ele>1334.75</ele>
      </trkpt>
      <trkpt lat="3.411488" lon="101.789044">
        <ele>1335.15</ele>
      </trkpt>
      <trkpt lat="3.411335" lon="101.788923">
        <ele>1336.39</ele>
      </trkpt>
      <trkpt lat="3.411312" lon="101.788872">
        <ele>1336.47</ele>
      </trkpt>
      <trkpt lat="3.411298" lon="101.788763">
        <ele>1335.42</ele>
      </trkpt>
      <trkpt lat="3.411301" lon="101.788556">
        <ele>1333.58</ele>
      </trkpt>
      <trkpt lat="3.411278" lon="101.788419">
        <ele>1332.4</ele>
      </trkpt>
      <trkpt lat="3.411218" lon="101.788294">
        <ele>1330.71</ele>
      </trkpt>
      <trkpt lat="3.411116" lon="101.788187">
        <ele>1326.92</ele>
      </trkpt>
      <trkpt lat="3.411056" lon="101.788075">
        <ele>1326.48</ele>
      </trkpt>
      <trkpt lat="3.410991" lon="101.787881">
        <ele>1328.24</ele>
      </trkpt>
      <trkpt lat="3.41092" lon="101.787776">
        <ele>1327.09</ele>
      </trkpt>
      <trkpt lat="3.410494" lon="101.787334">
        <ele>1319.17</ele>
      </trkpt>
      <trkpt lat="3.410085" lon="101.786849">
        <ele>1308.97</ele>
      </trkpt>
      <trkpt lat="3.409996" lon="101.786761">
        <ele>1307.19</ele>
      </trkpt>
      <trkpt lat="3.409821" lon="101.786605">
        <ele>1306.19</ele>
      </trkpt>
      <trkpt lat="3.409794" lon="101.786569">
        <ele>1306.02</ele>
      </trkpt>
      <trkpt lat="3.40978" lon="101.786513">
        <ele>1306.11</ele>
      </trkpt>
      <trkpt lat="3.409785" lon="101.786463">
        <ele>1306.34</ele>
      </trkpt>
      <trkpt lat="3.409802" lon="101.78641">
        <ele>1305.3</ele>
      </trkpt>
      <trkpt lat="3.409831" lon="101.786367">
        <ele>1304.46</ele>
      </trkpt>
      <trkpt lat="3.409865" lon="101.786333">
        <ele>1303.87</ele>
      </trkpt>
      <trkpt lat="3.40996" lon="101.786289">
        <ele>1303.78</ele>
      </trkpt>
      <trkpt lat="3.410154" lon="101.78622">
        <ele>1302.85</ele>
      </trkpt>
      <trkpt lat="3.410405" lon="101.786156">
        <ele>1302.08</ele>
      </trkpt>
      <trkpt lat="3.410532" lon="101.786101">
        <ele>1301.46</ele>
      </trkpt>
      <trkpt lat="3.410626" lon="101.786002">
        <ele>1298.37</ele>
      </trkpt>
      <trkpt lat="3.410684" lon="101.785904">
        <ele>1295.85</ele>
      </trkpt>
      <trkpt lat="3.410794" lon="101.785601">
        <ele>1292.94</ele>
      </trkpt>
      <trkpt lat="3.410904" lon="101.785297">
        <ele>1292.73</ele>
      </trkpt>
      <trkpt lat="3.410928" lon="101.785151">
        <ele>1293.75</ele>
      </trkpt>
      <trkpt lat="3.410916" lon="101.785012">
        <ele>1294.35</ele>
      </trkpt>
      <trkpt lat="3.410869" lon="101.784896">
        <ele>1292.97</ele>
      </trkpt>
      <trkpt lat="3.41048" lon="101.78449">
        <ele>1274.93</ele>
      </trkpt>
      <trkpt lat="3.410413" lon="101.784408">
        <ele>1271.18</ele>
      </trkpt>
      <trkpt lat="3.410409" lon="101.784403">
        <ele>1270.97</ele>
      </trkpt>
      <trkpt lat="3.410354" lon="101.784237">
        <ele>1270.53</ele>
      </trkpt>
      <trkpt lat="3.410359" lon="101.784039">
        <ele>1272.37</ele>
      </trkpt>
      <trkpt lat="3.410359" lon="101.784039">
        <ele>1272.37</ele>
      </trkpt>
      <trkpt lat="3.41036" lon="101.784006">
        <ele>1272.68</ele>
      </trkpt>
      <trkpt lat="3.410388" lon="101.783873">
        <ele>1275.07</ele>
      </trkpt>
      <trkpt lat="3.410404" lon="101.783845">
        <ele>1275.99</ele>
      </trkpt>
    </trkseg>
  </trk>
</gpx>
